VSP RF A1               
1 59135U 24043AP  26066.03073316  .00000577  00000+0  25199-4 0  9997
2 59135  97.5247 201.5379 0009431 234.6315 125.4042 15.26179596111403
STARLINK-35811          
1 66596U 25270J   26068.37318022  .00041822  00000+0  15204-2 0  9996
2 66596  43.0034  58.3000 0001095 287.3738  72.6994 15.27587209 17761
